H1 CPF  1  HTS 2022  6  8 12  6591 larets           NONE
H2  0304206 5557    27944 2022 06 08  0  0  0 2022 06 13  0  0  0   180 1 1  0 0 0
H5  0.0560 
H9 
10 0 59739  59400.00000  0    3404807.420   -3384572.150   -5185591.493
10 0 59739  59580.00000  0    2422549.931   -2875599.137   -5981920.606
10 0 59739  59760.00000  0    1367647.201   -2235755.286   -6560056.113
10 0 59739  59940.00000  0     281471.587   -1486882.125   -6899007.855
10 0 59739  60120.00000  0    -794148.004    -655820.784   -6986442.600
10 0 59739  60300.00000  0   -1818520.274     226545.338   -6819102.267
10 0 59739  60480.00000  0   -2753613.336    1126421.931   -6402923.798
10 0 59739  60660.00000  0   -3565456.937    2008377.655   -5752857.212
10 0 59739  60840.00000  0   -4225387.054    2836724.563   -4892385.386
10 0 59739  61020.00000  0   -4711095.047    3576963.781   -3852737.723
10 0 59739  61200.00000  0   -5007429.435    4197237.496   -2671804.683
10 0 59739  61380.00000  0   -5106913.550    4669724.240   -1392783.004
10 0 59739  61560.00000  0   -5009949.853    4971907.546     -62588.574
10 0 59739  61740.00000  0   -4724690.959    5087650.278    1269905.483
10 0 59739  61920.00000  0   -4266575.108    5008008.324    2555728.308
10 0 59739  62100.00000  0   -3657546.641    4731734.956    3747676.863
10 0 59739  62280.00000  0   -2925007.862    4265454.029    4802093.048
10 0 59739  62460.00000  0   -2100567.734    3623499.665    5680479.070
10 0 59739  62640.00000  0   -1218651.372    2827433.752    6350888.633
10 0 59739  62820.00000  0    -315042.160    1905271.327    6789044.618
10 0 59739  63000.00000  0     574572.691     890457.854    6979160.051
10 0 59739  63180.00000  0    1416002.145    -179359.686    6914457.020
10 0 59739  63360.00000  0    2177850.469   -1263725.936    6597378.118
10 0 59739  63540.00000  0    2832675.803   -2320894.775    6039492.854
10 0 59739  63720.00000  0    3357976.346   -3309425.111    5261099.139
10 0 59739  63900.00000  0    3736971.116   -4189803.419    4290522.936
10 0 59739  64080.00000  0    3959148.635   -4926035.252    3163129.061
10 0 59739  64260.00000  0    4020559.504   -5487141.530    1920061.433
10 0 59739  64440.00000  0    3923836.179   -5848489.244     606749.352
10 0 59739  64620.00000  0    3677935.440   -5992887.336    -728766.822
10 0 59739  64800.00000  0    3297616.175   -5911393.176   -2037623.875
10 0 59739  64980.00000  0    2802671.834   -5603781.612   -3271964.073
10 0 59739  65160.00000  0    2216960.624   -5078651.623   -4386717.820
10 0 59739  65340.00000  0    1567282.126   -4353165.071   -5341261.554
10 0 59739  65520.00000  0     882166.436   -3452440.369   -6100879.658
10 0 59739  65700.00000  0     190635.892   -2408640.373   -6637987.983
10 0 59739  65880.00000  0    -479009.953   -1259796.351   -6933087.540
10 0 59739  66060.00000  0   -1100334.144     -48414.467   -6975429.659
10 0 59739  66240.00000  0   -1649789.469    1180084.987   -6763383.414
10 0 59739  66420.00000  0   -2107602.635    2379046.392   -6304501.854
10 0 59739  66600.00000  0   -2458487.016    3502330.113   -5615289.223
10 0 59739  66780.00000  0   -2692165.024    4506088.367   -4720666.051
10 0 59739  66960.00000  0   -2803680.334    5350505.201   -3653127.958
10 0 59739  67140.00000  0   -2793481.491    6001424.663   -2451607.315
10 0 59739  67320.00000  0   -2667269.178    6431794.255   -1160075.007
10 0 59739  67500.00000  0   -2435611.100    6622851.583     174082.033
10 0 59739  67680.00000  0   -2113341.545    6564985.139    1501840.351
10 0 59739  67860.00000  0   -1718768.612    6258214.507    2774411.813
10 0 59739  68040.00000  0   -1272729.495    5712245.430    3945100.030
10 0 59739  68220.00000  0    -797556.894    4946119.716    4971050.934
10 0 59739  68400.00000  0    -316007.433    3987481.531    5814833.841
10 0 59739  68580.00000  0     149794.848    2871504.096    6445782.827
10 0 59739  68760.00000  0     579343.055    1639538.501    6841065.705
10 0 59739  68940.00000  0     954623.633     337544.356    6986455.085
10 0 59739  69120.00000  0    1260851.444    -985634.171    6876791.914
10 0 59739  69300.00000  0    1487039.820   -2280089.716    6516145.061
10 0 59739  69480.00000  0    1626389.335   -3496720.482    5917663.417
10 0 59739  69660.00000  0    1676483.045   -4589086.931    5103119.951
10 0 59739  69840.00000  0    1639284.112   -5515189.382    4102156.824
10 0 59739  70020.00000  0    1520939.674   -6239112.284    2951250.844
10 0 59739  70200.00000  0    1331392.855   -6732464.427    1692409.605
10 0 59739  70380.00000  0    1083819.151   -6975543.099     371646.408
10 0 59739  70560.00000  0     793912.333   -6958169.458    -962717.523
10 0 59739  70740.00000  0     479050.151   -6680135.950   -2261862.673
10 0 59739  70920.00000  0     157389.937   -6151231.484   -3478297.944
10 0 59739  71100.00000  0    -153056.309   -5390860.463   -4567622.520
10 0 59739  71280.00000  0    -435323.963   -4427274.518   -5490152.969
10 0 59739  71460.00000  0    -674329.039   -3296463.063   -6212347.416
10 0 59739  71640.00000  0    -857592.881   -2040762.213   -6707984.796
10 0 59739  71820.00000  0    -975828.798    -707244.767   -6959068.075
10 0 59739  72000.00000  0   -1023369.768     654043.718   -6956436.737
10 0 59739  72180.00000  0    -998421.454    1991943.489   -6700080.752
10 0 59739  72360.00000  0    -903133.444    3256076.800   -6199155.393
10 0 59739  72540.00000  0    -743485.869    4398732.865   -5471697.152
10 0 59739  72720.00000  0    -528992.389    5376684.456   -4544033.102
10 0 59739  72900.00000  0    -272229.749    6152869.962   -3449886.637
10 0 59739  73080.00000  0      11790.228    6697868.630   -2229191.282
10 0 59739  73260.00000  0     306381.582    6991097.005    -926645.950
10 0 59739  73440.00000  0     594042.766    7021661.582     409942.966
10 0 59739  73620.00000  0     857370.629    6788811.743    1731466.236
10 0 59739  73800.00000  0    1079976.729    6301959.997    2989379.371
10 0 59739  73980.00000  0    1247352.849    5580272.966    4137540.631
10 0 59739  74160.00000  0    1347647.944    4651860.985    5133941.108
10 0 59739  74340.00000  0    1372312.336    3552603.304    5942253.688
10 0 59739  74520.00000  0    1316577.755    2324684.159    6533124.761
10 0 59739  74700.00000  0    1179757.962    1014924.112    6885191.418
10 0 59739  74880.00000  0     965357.899    -327031.994    6985798.703
10 0 59739  75060.00000  0     680990.097   -1650593.914    6831409.946
10 0 59739  75240.00000  0     338100.169   -2906119.828    6427713.864
10 0 59739  75420.00000  0     -48490.368   -4046767.160    5789418.707
10 0 59739  75600.00000  0    -461204.634   -5030233.023    4939737.445
10 0 59739  75780.00000  0    -880472.424   -5820334.692    3909590.974
10 0 59739  75960.00000  0   -1285614.133   -6388386.134    2736526.996
10 0 59739  76140.00000  0   -1655807.163   -6714293.364    1463373.848
10 0 59739  76320.00000  0   -1971090.488   -6787319.575     136678.802
10 0 59739  76500.00000  0   -2213355.888   -6606472.264   -1195019.154
10 0 59739  76680.00000  0   -2367270.335   -6180488.074   -2483002.692
10 0 59739  76860.00000  0   -2421086.216   -5527417.814   -3680196.244
10 0 59739  77040.00000  0   -2367296.118   -4673829.969   -4742913.677
10 0 59739  77220.00000  0   -2203097.820   -3653679.645   -5632452.513
10 0 59739  77400.00000  0   -1930652.207   -2506912.252   -6316477.520
10 0 59739  77580.00000  0   -1557124.688   -1277866.999   -6770155.627
10 0 59739  77760.00000  0   -1094509.314     -13548.893   -6977008.252
10 0 59739  77940.00000  0    -559247.506    1238159.187   -6929468.782
10 0 59739  78120.00000  0      28348.842    2430285.729   -6629145.034
10 0 59739  78300.00000  0     644851.730    3518512.938   -6086784.681
10 0 59739  78480.00000  0    1264633.685    4462825.670   -5321937.402
10 0 59739  78660.00000  0    1860915.150    5229007.835   -4362308.318
10 0 59739  78840.00000  0    2406906.863    5789935.220   -3242811.171
10 0 59739  79020.00000  0    2877000.758    6126603.822   -2004334.082
10 0 59739  79200.00000  0    3247956.113    6228842.963    -692253.014
10 0 59739  79380.00000  0    3500018.342    6095666.095     645260.475
10 0 59739  79560.00000  0    3617906.442    5735230.141    1959060.874
10 0 59739  79740.00000  0    3591618.227    5164407.766    3200893.734
10 0 59739  79920.00000  0    3417008.661    4407993.750    4325223.382
10 0 59739  80100.00000  0    3096112.715    3497587.375    5290935.598
10 0 59739  80280.00000  0    2637190.818    2470218.001    6062844.248
10 0 59739  80460.00000  0    2054511.341    1366789.835    6612937.812
10 0 59739  80640.00000  0    1367886.867     230423.201    6921345.160
10 0 59739  80820.00000  0     601979.762    -895236.821    6976997.374
10 0 59739  81000.00000  0    -214591.687   -1967686.400    6777987.736
10 0 59739  81180.00000  0   -1050321.292   -2947155.766    6331619.703
10 0 59739  81360.00000  0   -1872018.254   -3798072.186    5654142.289
10 0 59739  81540.00000  0   -2646106.028   -4490349.628    4770192.592
10 0 59739  81720.00000  0   -3339990.212   -5000474.110    3711950.013
10 0 59739  81900.00000  0   -3923435.964   -5312335.914    2518000.423
10 0 59739  82080.00000  0   -4369885.225   -5417767.262    1231947.045
10 0 59739  82260.00000  0   -4657659.126   -5316760.790     -99184.132
10 0 59739  82440.00000  0   -4770984.384   -5017351.405   -1426688.282
10 0 59739  82620.00000  0   -4700785.844   -4535162.369   -2702004.593
10 0 59739  82800.00000  0   -4445197.787   -3892633.412   -3878532.527
10 0 59739  82980.00000  0   -4009770.737   -3117978.948   -4913354.411
10 0 59739  83160.00000  0   -3407370.563   -2243936.342   -5768796.811
10 0 59739  83340.00000  0   -2657779.358   -1306367.013   -6413774.057
10 0 59739  83520.00000  0   -1787021.159    -342776.946   -6824874.437
10 0 59739  83700.00000  0    -826441.241     609179.687   -6987159.563
99
